*******************************************************************************
Ephemeris / WWW_USER Mon Jul 15 19:16:27 2024 Pasadena, USA      / Horizons    
*******************************************************************************
Target body name: (2018 WV1)                      {source: JPL#17}
Center body name: Earth (399)                     {source: DE441}
Center-site name: Gemini South Obs., Cerro Pachon
*******************************************************************************
Start time      : A.D. 2018-Oct-23 23:07:00.0000 UT      
Stop  time      : A.D. 2018-Oct-24 09:46:00.0000 UT      
Step-size       : 1 minutes
*******************************************************************************
Target pole/equ : undefined
Target radii    : undefined                                                    
Center geodetic : 289.2634, -30.2406227, 2.71233  {E-lon(deg),Lat(deg),Alt(km)}
Center cylindric: 289.2634,5517.21435,-3194.81213 {E-lon(deg),Dxy(km),Dz(km)}
Center pole/equ : ITRF93                          {East-longitude positive}
Center radii    : 6378.137, 6378.137, 6356.752 km {Equator_a, b, pole_c}       
Target primary  : Sun
Vis. interferer : MOON (R_eq= 1737.400) km        {source: DE441}
Rel. light bend : Sun                             {source: DE441}
Rel. lght bnd GM: 1.3271E+11 km^3/s^2                                          
Small-body perts: Yes                             {source: SB441-N16}
Atmos refraction: NO (AIRLESS)
RA format       : HMS
Time format     : CAL 
Calendar mode   : Mixed Julian/Gregorian
RTS-only print  : NO       
EOP file        : eop.240715.p241008                                           
EOP coverage    : DATA-BASED 1962-JAN-20 TO 2024-JUL-15. PREDICTS-> 2024-OCT-07
Units conversion: 1 au= 149597870.700 km, c= 299792.458 km/s, 1 day= 86400.0 s 
Table cut-offs 1: Elevation (-90.0deg=NO ),Airmass (>38.000=NO), Daylight (YES)
Table cut-offs 2: Solar elongation (  0.0,180.0=NO ),Local Hour Angle( 0.0=NO )
Table cut-offs 3: RA/DEC angular rate (     0.0=NO )                           
*******************************************************************************
Initial IAU76/J2000 heliocentric ecliptic osculating elements (au, days, deg.):
  EPOCH=  2458458.5 ! 2018-Dec-06.00 (TDB)         Residual RMS= .12928        
   EC= .06869100257422787  QR= .9715505345748198   TP= 2458416.866413563       
   OM= 248.5061090469913   W=  141.3742304527303   IN= 1.905403987972275       
  Equivalent ICRF heliocentric cartesian coordinates (au, au/d):
   X= 2.787163119783287E-01  Y= 8.719775267121872E-01  Z= 3.748421051204766E-01
  VX=-1.676682657337402E-02 VY= 5.516972965834891E-03 VZ= 1.749720915605096E-03
Asteroid physical parameters (km, seconds, rotational period in hours):        
   GM= n.a.                RAD= n.a.               ROTPER= n.a.                
   H= 30.3                 G= .150                 B-V= n.a.                   
                           ALBEDO= n.a.            STYP= n.a.                  
*******************************************************************************
 Date__(UT)__HR:MN     R.A._________(ICRF)_________DEC
******************************************************
$$SOE
 2018-Oct-24 01:10  m  01 52 06.991835 +21 25 35.59990
 2018-Oct-24 01:11  m  01 52 06.936190 +21 25 36.00141
 2018-Oct-24 01:12  m  01 52 06.880367 +21 25 36.40214
 2018-Oct-24 01:13  m  01 52 06.824367 +21 25 36.80208
 2018-Oct-24 01:14  m  01 52 06.768190 +21 25 37.20124
 2018-Oct-24 01:15  m  01 52 06.711836 +21 25 37.59960
 2018-Oct-24 01:16  m  01 52 06.655307 +21 25 37.99716
 2018-Oct-24 01:17  m  01 52 06.598603 +21 25 38.39393
 2018-Oct-24 01:18  m  01 52 06.541725 +21 25 38.78988
 2018-Oct-24 01:19  m  01 52 06.484674 +21 25 39.18503
 2018-Oct-24 01:20  m  01 52 06.427450 +21 25 39.57936
 2018-Oct-24 01:21  m  01 52 06.370053 +21 25 39.97288
 2018-Oct-24 01:22  m  01 52 06.312486 +21 25 40.36557
 2018-Oct-24 01:23  m  01 52 06.254747 +21 25 40.75744
 2018-Oct-24 01:24  m  01 52 06.196839 +21 25 41.14848
 2018-Oct-24 01:25  m  01 52 06.138761 +21 25 41.53869
 2018-Oct-24 01:26  m  01 52 06.080514 +21 25 41.92807
 2018-Oct-24 01:27  m  01 52 06.022100 +21 25 42.31660
 2018-Oct-24 01:28  m  01 52 05.963519 +21 25 42.70429
 2018-Oct-24 01:29  m  01 52 05.904771 +21 25 43.09113
 2018-Oct-24 01:30  m  01 52 05.845857 +21 25 43.47712
 2018-Oct-24 01:31  m  01 52 05.786778 +21 25 43.86225
 2018-Oct-24 01:32  m  01 52 05.727535 +21 25 44.24653
 2018-Oct-24 01:33  m  01 52 05.668128 +21 25 44.62994
 2018-Oct-24 01:34  m  01 52 05.608559 +21 25 45.01249
 2018-Oct-24 01:35  m  01 52 05.548827 +21 25 45.39416
 2018-Oct-24 01:36  m  01 52 05.488934 +21 25 45.77497
 2018-Oct-24 01:37  m  01 52 05.428880 +21 25 46.15489
 2018-Oct-24 01:38  m  01 52 05.368667 +21 25 46.53394
 2018-Oct-24 01:39  m  01 52 05.308294 +21 25 46.91210
 2018-Oct-24 01:40  m  01 52 05.247763 +21 25 47.28938
 2018-Oct-24 01:41  m  01 52 05.187074 +21 25 47.66576
 2018-Oct-24 01:42  m  01 52 05.126228 +21 25 48.04125
 2018-Oct-24 01:43  m  01 52 05.065226 +21 25 48.41584
 2018-Oct-24 01:44  m  01 52 05.004069 +21 25 48.78952
 2018-Oct-24 01:45  m  01 52 04.942757 +21 25 49.16231
 2018-Oct-24 01:46  m  01 52 04.881291 +21 25 49.53418
 2018-Oct-24 01:47  m  01 52 04.819672 +21 25 49.90514
 2018-Oct-24 01:48  m  01 52 04.757901 +21 25 50.27518
 2018-Oct-24 01:49  m  01 52 04.695979 +21 25 50.64431
 2018-Oct-24 01:50  m  01 52 04.633905 +21 25 51.01251
 2018-Oct-24 01:51  m  01 52 04.571682 +21 25 51.37979
 2018-Oct-24 01:52  m  01 52 04.509309 +21 25 51.74614
 2018-Oct-24 01:53  m  01 52 04.446788 +21 25 52.11155
 2018-Oct-24 01:54  m  01 52 04.384120 +21 25 52.47603
 2018-Oct-24 01:55  m  01 52 04.321304 +21 25 52.83957
 2018-Oct-24 01:56  m  01 52 04.258343 +21 25 53.20217
 2018-Oct-24 01:57  m  01 52 04.195236 +21 25 53.56382
 2018-Oct-24 01:58  m  01 52 04.131985 +21 25 53.92452
 2018-Oct-24 01:59  m  01 52 04.068591 +21 25 54.28427
 2018-Oct-24 02:00  m  01 52 04.005053 +21 25 54.64306
 2018-Oct-24 02:01  m  01 52 03.941374 +21 25 55.00090
 2018-Oct-24 02:02  m  01 52 03.877553 +21 25 55.35777
 2018-Oct-24 02:03  m  01 52 03.813592 +21 25 55.71368
 2018-Oct-24 02:04  m  01 52 03.749492 +21 25 56.06862
 2018-Oct-24 02:05  m  01 52 03.685253 +21 25 56.42259
 2018-Oct-24 02:06  m  01 52 03.620875 +21 25 56.77558
 2018-Oct-24 02:07  m  01 52 03.556361 +21 25 57.12760
 2018-Oct-24 02:08  m  01 52 03.491711 +21 25 57.47863
 2018-Oct-24 02:09  m  01 52 03.426925 +21 25 57.82868
 2018-Oct-24 02:10  m  01 52 03.362005 +21 25 58.17775
 2018-Oct-24 02:11  m  01 52 03.296951 +21 25 58.52582
 2018-Oct-24 02:12  m  01 52 03.231764 +21 25 58.87291
 2018-Oct-24 02:13  m  01 52 03.166445 +21 25 59.21899
 2018-Oct-24 02:14  m  01 52 03.100994 +21 25 59.56408
 2018-Oct-24 02:15  m  01 52 03.035414 +21 25 59.90816
 2018-Oct-24 02:16  m  01 52 02.969704 +21 26 00.25124
 2018-Oct-24 02:17  m  01 52 02.903865 +21 26 00.59332
 2018-Oct-24 02:18  m  01 52 02.837898 +21 26 00.93438
 2018-Oct-24 02:19  m  01 52 02.771805 +21 26 01.27443
 2018-Oct-24 02:20  m  01 52 02.705585 +21 26 01.61346
 2018-Oct-24 02:21  m  01 52 02.639240 +21 26 01.95148
 2018-Oct-24 02:22  m  01 52 02.572771 +21 26 02.28847
 2018-Oct-24 02:23  m  01 52 02.506179 +21 26 02.62444
 2018-Oct-24 02:24  m  01 52 02.439463 +21 26 02.95938
 2018-Oct-24 02:25  m  01 52 02.372626 +21 26 03.29329
 2018-Oct-24 02:26  m  01 52 02.305669 +21 26 03.62617
 2018-Oct-24 02:27  m  01 52 02.238591 +21 26 03.95801
 2018-Oct-24 02:28  m  01 52 02.171394 +21 26 04.28881
 2018-Oct-24 02:29  m  01 52 02.104079 +21 26 04.61857
 2018-Oct-24 02:30  m  01 52 02.036646 +21 26 04.94729
 2018-Oct-24 02:31  m  01 52 01.969097 +21 26 05.27496
 2018-Oct-24 02:32  m  01 52 01.901433 +21 26 05.60159
 2018-Oct-24 02:33  m  01 52 01.833653 +21 26 05.92716
 2018-Oct-24 02:34  m  01 52 01.765760 +21 26 06.25168
 2018-Oct-24 02:35  m  01 52 01.697755 +21 26 06.57514
 2018-Oct-24 02:36  m  01 52 01.629637 +21 26 06.89754
 2018-Oct-24 02:37  m  01 52 01.561408 +21 26 07.21889
 2018-Oct-24 02:38  m  01 52 01.493069 +21 26 07.53916
 2018-Oct-24 02:39  m  01 52 01.424620 +21 26 07.85837
 2018-Oct-24 02:40  m  01 52 01.356064 +21 26 08.17651
 2018-Oct-24 02:41  m  01 52 01.287399 +21 26 08.49358
 2018-Oct-24 02:42  m  01 52 01.218628 +21 26 08.80958
 2018-Oct-24 02:43  m  01 52 01.149752 +21 26 09.12450
 2018-Oct-24 02:44  m  01 52 01.080771 +21 26 09.43834
 2018-Oct-24 02:45  m  01 52 01.011686 +21 26 09.75110
 2018-Oct-24 02:46  m  01 52 00.942498 +21 26 10.06278
 2018-Oct-24 02:47  m  01 52 00.873208 +21 26 10.37337
 2018-Oct-24 02:48  m  01 52 00.803817 +21 26 10.68287
 2018-Oct-24 02:49  m  01 52 00.734326 +21 26 10.99129
 2018-Oct-24 02:50  m  01 52 00.664736 +21 26 11.29861
 2018-Oct-24 02:51  m  01 52 00.595047 +21 26 11.60483
 2018-Oct-24 02:52  m  01 52 00.525262 +21 26 11.90996
 2018-Oct-24 02:53  m  01 52 00.455379 +21 26 12.21399
 2018-Oct-24 02:54  m  01 52 00.385402 +21 26 12.51692
 2018-Oct-24 02:55  m  01 52 00.315329 +21 26 12.81875
 2018-Oct-24 02:56  m  01 52 00.245164 +21 26 13.11947
 2018-Oct-24 02:57  m  01 52 00.174905 +21 26 13.41908
 2018-Oct-24 02:58  m  01 52 00.104555 +21 26 13.71759
 2018-Oct-24 02:59  m  01 52 00.034114 +21 26 14.01498
 2018-Oct-24 03:00  m  01 51 59.963583 +21 26 14.31125
 2018-Oct-24 03:01  m  01 51 59.892963 +21 26 14.60642
 2018-Oct-24 03:02  m  01 51 59.822256 +21 26 14.90046
 2018-Oct-24 03:03  m  01 51 59.751461 +21 26 15.19339
 2018-Oct-24 03:04  m  01 51 59.680581 +21 26 15.48519
 2018-Oct-24 03:05  m  01 51 59.609615 +21 26 15.77587
 2018-Oct-24 03:06  m  01 51 59.538565 +21 26 16.06542
 2018-Oct-24 03:07  m  01 51 59.467432 +21 26 16.35385
 2018-Oct-24 03:08  m  01 51 59.396217 +21 26 16.64115
 2018-Oct-24 03:09  m  01 51 59.324921 +21 26 16.92731
 2018-Oct-24 03:10  m  01 51 59.253544 +21 26 17.21235
 2018-Oct-24 03:11  m  01 51 59.182088 +21 26 17.49624
 2018-Oct-24 03:12  m  01 51 59.110553 +21 26 17.77901
